COSMOS 2426 (717)       
1 29671U 06062B   20152.27451706 -.00000023  00000-0  10000-3 0  9991
2 29671  64.9743 268.4918 0020105 172.4051 226.2313  2.12962425104531
COSMOS 2433 (720)       
1 32275U 07052A   20152.24553244 -.00000058  00000-0  10000-3 0  9990
2 32275  65.9757  29.4937 0001755 282.7417 224.3705  2.13104363 98040
COSMOS 2432 (719)       
1 32276U 07052B   20152.27835134 -.00000058  00000-0  10000-3 0  9995
2 32276  65.9882  29.5831 0011076 336.8989 145.6316  2.13103797 98049
COSMOS 2434 (721)       
1 32393U 07065A   20152.03660469 -.00000021  00000-0  00000-0 0  9996
2 32393  64.5807 267.0159 0004110 101.3792 133.0256  2.13103127 96747
COSMOS 2436 (723)       
1 32395U 07065C   20152.13304885 -.00000022  00000-0  10000-3 0  9991
2 32395  64.5904 267.0631 0013835   4.6283  80.0158  2.13103109 96681
COSMOS 2456 (730)       
1 36111U 09070A   20152.13365074  .00000112  00000-0  00000-0 0  9991
2 36111  64.2271 146.6852 0006416 303.8978 178.3880  2.13102971 81418
COSMOS 2457 (733)       
1 36112U 09070B   20152.52183205  .00000111  00000-0  00000+0 0  9997
2 36112  64.2104 146.5664 0004753 197.5050 345.9310  2.13101543 81420
COSMOS 2459 (731)       
1 36400U 10007A   20151.60250948 -.00000057  00000-0  10000-3 0  9991
2 36400  65.8769  28.4888 0026553 352.0653 237.1000  2.13105336 79754
COSMOS 2461 (735)       
1 36401U 10007B   20152.13826221 -.00000058  00000-0  10000-3 0  9995
2 36401  65.8714  28.4420 0008440  58.9097 129.5531  2.13102149 79769
COSMOS 2460 (732)       
1 36402U 10007C   20152.57779465 -.00000058  00000-0  10000-3 0  9991
2 36402  65.8619  28.3857 0001623  39.7006 165.1007  2.13101468 79778
COSMOS 2464 (736)       
1 37139U 10041C   20152.14203661 -.00000022  00000-0  00000-0 0  9997
2 37139  64.1791 266.4607 0026115  12.7983 166.2271  2.13100774 75832
COSMOS 2474 (742)       
1 37829U 11055A   20152.40570734  .00000113  00000-0  00000-0 0  9996
2 37829  64.5461 147.6947 0010601 250.3061 295.5137  2.13101811 67418
COSMOS 2476 (744)       
1 37867U 11064A   20152.23755150  .00000113  00000-0  00000-0 0  9996
2 37867  64.5269 147.7434 0021642 243.3046 219.7739  2.13101996 66767
COSMOS 2477 (745)       
1 37868U 11064B   20152.58304418  .00000113  00000-0  00000-0 0  9992
2 37868  64.5357 147.7901 0019225 244.7275 301.9072  2.13101855 66722
COSMOS 2475 (743)       
1 37869U 11064C   20151.84053307  .00000113  00000-0  00000-0 0  9999
2 37869  64.5418 147.8155 0023694 263.5126  30.8476  2.13102064 66710
COSMOS 2485 (747)       
1 39155U 13019A   20152.44307065  .00000113  00000-0  00000+0 0  9990
2 39155  64.6945 148.0021 0021940 238.9332  66.3838  2.13102014 55234
COSMOS 2492 (754)       
1 39620U 14012A   20152.23151093 -.00000058  00000-0  10000-3 0  9990
2 39620  65.7517  28.1827 0014066 331.8922 206.2045  2.13103378 48184
COSMOS 2500 (755)       
1 40001U 14032A   20152.41785478 -.00000058  00000-0  00000-0 0  9993
2 40001  65.6906  28.0934 0004738 202.8685 338.7777  2.13102716 46407
COSMOS 2501 (702K)      
1 40315U 14075A   20152.44724091 -.00000025  00000-0  00000-0 0  9999
2 40315  63.8984 267.4019 0016328 205.4846 153.8458  2.13098718 42808
COSMOS 2514 (751)       
1 41330U 16008A   20152.38550757 -.00000058  00000-0  00000-0 0  9990
2 41330  65.4921  27.9700 0008116 214.3134 124.9084  2.13103112 33568
COSMOS 2516 (753)       
1 41554U 16032A   20152.37781495 -.00000025  00000-0  00000+0 0  9992
2 41554  64.1201 267.4689 0012449 213.7588  10.3499  2.13101754 31173
COSMOS 2522 (752)       
1 42939U 17055A   20152.37657993 -.00000024  00000-0  00000-0 0  9991
2 42939  64.3538 267.6446 0006780 240.2251 209.5087  2.13101940 20936
COSMOS 2527 (756)       
1 43508U 18053A   20152.45901281  .00000113  00000-0  00000+0 0  9991
2 43508  64.8589 147.8451 0009310 244.4590 300.2965  2.13102673 15223
COSMOS 2529 (757)       
1 43687U 18086A   20152.17058219 -.00000023  00000-0  00000-0 0  9990
2 43687  64.5678 267.7674 0008896 269.8554 337.4665  2.13102142 12233
COSMOS 2534 (758)       
1 44299U 19030A   20152.44246946 -.00000025  00000-0  00000+0 0  9997
2 44299  64.6368 267.5722 0011832 290.0152 300.9432  2.13102061  7888
